ONEWEB-0102             
1 47258U 20100A   24198.36274502 -.00000031  00000+0 -12113-3 0  9998
2 47258  87.8956 130.2470 0001844  78.1862 281.9473 13.12442695172806
ONEWEB-0109             
1 47259U 20100B   24198.37084297 -.00000217  00000+0 -63944-3 0  9994
2 47259  87.8958 130.2101 0001863  77.5220 282.6117 13.12445469172638
ONEWEB-0110             
1 47260U 20100C   24198.32057322  .00000051  00000+0  10742-3 0  9992
2 47260  87.8950 130.2241 0001949  74.4038 285.7305 13.12445310172790
ONEWEB-0111             
1 47261U 20100D   24198.35138127  .00000320  00000+0  85285-3 0  9992
2 47261  87.8957 130.2155 0001932  77.5934 282.5411 13.12444799172639
ONEWEB-0114             
1 47262U 20100E   24198.30596459 -.00000341  00000+0 -98461-3 0  9999
2 47262  87.8953 130.2387 0001591  82.7322 277.3987 13.12443147172583
ONEWEB-0117             
1 47263U 20100F   24198.37410100 -.00000309  00000+0 -89556-3 0  9994
2 47263  87.8956 130.2016 0002025  77.6349 282.5006 13.12444312172609
ONEWEB-0118             
1 47264U 20100G   24198.33030825  .00000378  00000+0  10145-2 0  9994
2 47264  87.8957 130.2141 0001901  91.3356 268.7990 13.12444328172798
ONEWEB-0119             
1 47265U 20100H   24198.35787482  .00000143  00000+0  36089-3 0  9991
2 47265  87.8955 130.2474 0001983  76.6123 283.5227 13.12441114172770
