<?xml version="1.0" encoding="UTF-8"?>
<ndm xmlns:xsi="http://www.w3.org/2001/XMLSchema-instance" xsi:noNamespaceSchemaLocation="https://sanaregistry.org/r/ndmxml_unqualified/ndmxml-2.0.0-master-2.0.xsd">
<omm id="CCSDS_OMM_VERS" version="2.0">
<header><CREATION_DATE/><ORIGINATOR/></header><body><segment><metadata><OBJECT_NAME>ONEWEB-0102</OBJECT_NAME><OBJECT_ID>2020-100A</OBJECT_ID><CENTER_NAME>EARTH</CENTER_NAME><REF_FRAME>TEME</REF_FRAME><TIME_SYSTEM>UTC</TIME_SYSTEM><MEAN_ELEMENT_THEORY>SGP4</MEAN_ELEMENT_THEORY></metadata><data><meanElements><EPOCH>2024-07-16T08:42:21.169728</EPOCH><MEAN_MOTION>13.12442695</MEAN_MOTION><ECCENTRICITY>.0001844</ECCENTRICITY><INCLINATION>87.8956</INCLINATION><RA_OF_ASC_NODE>130.2470</RA_OF_ASC_NODE><ARG_OF_PERICENTER>78.1862</ARG_OF_PERICENTER><MEAN_ANOMALY>281.9473</MEAN_ANOMALY></meanElements><tleParameters><EPHEMERIS_TYPE>0</EPHEMERIS_TYPE><CLASSIFICATION_TYPE>U</CLASSIFICATION_TYPE><NORAD_CAT_ID>47258</NORAD_CAT_ID><ELEMENT_SET_NO>999</ELEMENT_SET_NO><REV_AT_EPOCH>17280</REV_AT_EPOCH><BSTAR>-.12113E-3</BSTAR><MEAN_MOTION_DOT>-.31E-6</MEAN_MOTION_DOT><MEAN_MOTION_DDOT>0</MEAN_MOTION_DDOT></tleParameters></data></segment></body></omm>
<omm id="CCSDS_OMM_VERS" version="2.0">
<header><CREATION_DATE/><ORIGINATOR/></header><body><segment><metadata><OBJECT_NAME>ONEWEB-0109</OBJECT_NAME><OBJECT_ID>2020-100B</OBJECT_ID><CENTER_NAME>EARTH</CENTER_NAME><REF_FRAME>TEME</REF_FRAME><TIME_SYSTEM>UTC</TIME_SYSTEM><MEAN_ELEMENT_THEORY>SGP4</MEAN_ELEMENT_THEORY></metadata><data><meanElements><EPOCH>2024-07-16T08:54:00.832608</EPOCH><MEAN_MOTION>13.12445469</MEAN_MOTION><ECCENTRICITY>.0001863</ECCENTRICITY><INCLINATION>87.8958</INCLINATION><RA_OF_ASC_NODE>130.2101</RA_OF_ASC_NODE><ARG_OF_PERICENTER>77.5220</ARG_OF_PERICENTER><MEAN_ANOMALY>282.6117</MEAN_ANOMALY></meanElements><tleParameters><EPHEMERIS_TYPE>0</EPHEMERIS_TYPE><CLASSIFICATION_TYPE>U</CLASSIFICATION_TYPE><NORAD_CAT_ID>47259</NORAD_CAT_ID><ELEMENT_SET_NO>999</ELEMENT_SET_NO><REV_AT_EPOCH>17263</REV_AT_EPOCH><BSTAR>-.63944E-3</BSTAR><MEAN_MOTION_DOT>-.217E-5</MEAN_MOTION_DOT><MEAN_MOTION_DDOT>0</MEAN_MOTION_DDOT></tleParameters></data></segment></body></omm>
<omm id="CCSDS_OMM_VERS" version="2.0">
<header><CREATION_DATE/><ORIGINATOR/></header><body><segment><metadata><OBJECT_NAME>ONEWEB-0110</OBJECT_NAME><OBJECT_ID>2020-100C</OBJECT_ID><CENTER_NAME>EARTH</CENTER_NAME><REF_FRAME>TEME</REF_FRAME><TIME_SYSTEM>UTC</TIME_SYSTEM><MEAN_ELEMENT_THEORY>SGP4</MEAN_ELEMENT_THEORY></metadata><data><meanElements><EPOCH>2024-07-16T07:41:37.526208</EPOCH><MEAN_MOTION>13.12445310</MEAN_MOTION><ECCENTRICITY>.0001949</ECCENTRICITY><INCLINATION>87.8950</INCLINATION><RA_OF_ASC_NODE>130.2241</RA_OF_ASC_NODE><ARG_OF_PERICENTER>74.4038</ARG_OF_PERICENTER><MEAN_ANOMALY>285.7305</MEAN_ANOMALY></meanElements><tleParameters><EPHEMERIS_TYPE>0</EPHEMERIS_TYPE><CLASSIFICATION_TYPE>U</CLASSIFICATION_TYPE><NORAD_CAT_ID>47260</NORAD_CAT_ID><ELEMENT_SET_NO>999</ELEMENT_SET_NO><REV_AT_EPOCH>17279</REV_AT_EPOCH><BSTAR>.10742E-3</BSTAR><MEAN_MOTION_DOT>.51E-6</MEAN_MOTION_DOT><MEAN_MOTION_DDOT>0</MEAN_MOTION_DDOT></tleParameters></data></segment></body></omm>
<omm id="CCSDS_OMM_VERS" version="2.0">
<header><CREATION_DATE/><ORIGINATOR/></header><body><segment><metadata><OBJECT_NAME>ONEWEB-0111</OBJECT_NAME><OBJECT_ID>2020-100D</OBJECT_ID><CENTER_NAME>EARTH</CENTER_NAME><REF_FRAME>TEME</REF_FRAME><TIME_SYSTEM>UTC</TIME_SYSTEM><MEAN_ELEMENT_THEORY>SGP4</MEAN_ELEMENT_THEORY></metadata><data><meanElements><EPOCH>2024-07-16T08:25:59.341728</EPOCH><MEAN_MOTION>13.12444799</MEAN_MOTION><ECCENTRICITY>.0001932</ECCENTRICITY><INCLINATION>87.8957</INCLINATION><RA_OF_ASC_NODE>130.2155</RA_OF_ASC_NODE><ARG_OF_PERICENTER>77.5934</ARG_OF_PERICENTER><MEAN_ANOMALY>282.5411</MEAN_ANOMALY></meanElements><tleParameters><EPHEMERIS_TYPE>0</EPHEMERIS_TYPE><CLASSIFICATION_TYPE>U</CLASSIFICATION_TYPE><NORAD_CAT_ID>47261</NORAD_CAT_ID><ELEMENT_SET_NO>999</ELEMENT_SET_NO><REV_AT_EPOCH>17263</REV_AT_EPOCH><BSTAR>.85285E-3</BSTAR><MEAN_MOTION_DOT>.32E-5</MEAN_MOTION_DOT><MEAN_MOTION_DDOT>0</MEAN_MOTION_DDOT></tleParameters></data></segment></body></omm>
<omm id="CCSDS_OMM_VERS" version="2.0">
<header><CREATION_DATE/><ORIGINATOR/></header><body><segment><metadata><OBJECT_NAME>ONEWEB-0114</OBJECT_NAME><OBJECT_ID>2020-100E</OBJECT_ID><CENTER_NAME>EARTH</CENTER_NAME><REF_FRAME>TEME</REF_FRAME><TIME_SYSTEM>UTC</TIME_SYSTEM><MEAN_ELEMENT_THEORY>SGP4</MEAN_ELEMENT_THEORY></metadata><data><meanElements><EPOCH>2024-07-16T07:20:35.340576</EPOCH><MEAN_MOTION>13.12443147</MEAN_MOTION><ECCENTRICITY>.0001591</ECCENTRICITY><INCLINATION>87.8953</INCLINATION><RA_OF_ASC_NODE>130.2387</RA_OF_ASC_NODE><ARG_OF_PERICENTER>82.7322</ARG_OF_PERICENTER><MEAN_ANOMALY>277.3987</MEAN_ANOMALY></meanElements><tleParameters><EPHEMERIS_TYPE>0</EPHEMERIS_TYPE><CLASSIFICATION_TYPE>U</CLASSIFICATION_TYPE><NORAD_CAT_ID>47262</NORAD_CAT_ID><ELEMENT_SET_NO>999</ELEMENT_SET_NO><REV_AT_EPOCH>17258</REV_AT_EPOCH><BSTAR>-.98461E-3</BSTAR><MEAN_MOTION_DOT>-.341E-5</MEAN_MOTION_DOT><MEAN_MOTION_DDOT>0</MEAN_MOTION_DDOT></tleParameters></data></segment></body></omm>
<omm id="CCSDS_OMM_VERS" version="2.0">
<header><CREATION_DATE/><ORIGINATOR/></header><body><segment><metadata><OBJECT_NAME>ONEWEB-0117</OBJECT_NAME><OBJECT_ID>2020-100F</OBJECT_ID><CENTER_NAME>EARTH</CENTER_NAME><REF_FRAME>TEME</REF_FRAME><TIME_SYSTEM>UTC</TIME_SYSTEM><MEAN_ELEMENT_THEORY>SGP4</MEAN_ELEMENT_THEORY></metadata><data><meanElements><EPOCH>2024-07-16T08:58:42.326400</EPOCH><MEAN_MOTION>13.12444312</MEAN_MOTION><ECCENTRICITY>.0002025</ECCENTRICITY><INCLINATION>87.8956</INCLINATION><RA_OF_ASC_NODE>130.2016</RA_OF_ASC_NODE><ARG_OF_PERICENTER>77.6349</ARG_OF_PERICENTER><MEAN_ANOMALY>282.5006</MEAN_ANOMALY></meanElements><tleParameters><EPHEMERIS_TYPE>0</EPHEMERIS_TYPE><CLASSIFICATION_TYPE>U</CLASSIFICATION_TYPE><NORAD_CAT_ID>47263</NORAD_CAT_ID><ELEMENT_SET_NO>999</ELEMENT_SET_NO><REV_AT_EPOCH>17260</REV_AT_EPOCH><BSTAR>-.89556E-3</BSTAR><MEAN_MOTION_DOT>-.309E-5</MEAN_MOTION_DOT><MEAN_MOTION_DDOT>0</MEAN_MOTION_DDOT></tleParameters></data></segment></body></omm>
<omm id="CCSDS_OMM_VERS" version="2.0">
<header><CREATION_DATE/><ORIGINATOR/></header><body><segment><metadata><OBJECT_NAME>ONEWEB-0118</OBJECT_NAME><OBJECT_ID>2020-100G</OBJECT_ID><CENTER_NAME>EARTH</CENTER_NAME><REF_FRAME>TEME</REF_FRAME><TIME_SYSTEM>UTC</TIME_SYSTEM><MEAN_ELEMENT_THEORY>SGP4</MEAN_ELEMENT_THEORY></metadata><data><meanElements><EPOCH>2024-07-16T07:55:38.632800</EPOCH><MEAN_MOTION>13.12444328</MEAN_MOTION><ECCENTRICITY>.0001901</ECCENTRICITY><INCLINATION>87.8957</INCLINATION><RA_OF_ASC_NODE>130.2141</RA_OF_ASC_NODE><ARG_OF_PERICENTER>91.3356</ARG_OF_PERICENTER><MEAN_ANOMALY>268.7990</MEAN_ANOMALY></meanElements><tleParameters><EPHEMERIS_TYPE>0</EPHEMERIS_TYPE><CLASSIFICATION_TYPE>U</CLASSIFICATION_TYPE><NORAD_CAT_ID>47264</NORAD_CAT_ID><ELEMENT_SET_NO>999</ELEMENT_SET_NO><REV_AT_EPOCH>17279</REV_AT_EPOCH><BSTAR>.10145E-2</BSTAR><MEAN_MOTION_DOT>.378E-5</MEAN_MOTION_DOT><MEAN_MOTION_DDOT>0</MEAN_MOTION_DDOT></tleParameters></data></segment></body></omm>
<omm id="CCSDS_OMM_VERS" version="2.0">
<header><CREATION_DATE/><ORIGINATOR/></header><body><segment><metadata><OBJECT_NAME>ONEWEB-0119</OBJECT_NAME><OBJECT_ID>2020-100H</OBJECT_ID><CENTER_NAME>EARTH</CENTER_NAME><REF_FRAME>TEME</REF_FRAME><TIME_SYSTEM>UTC</TIME_SYSTEM><MEAN_ELEMENT_THEORY>SGP4</MEAN_ELEMENT_THEORY></metadata><data><meanElements><EPOCH>2024-07-16T08:35:20.384448</EPOCH><MEAN_MOTION>13.12441114</MEAN_MOTION><ECCENTRICITY>.0001983</ECCENTRICITY><INCLINATION>87.8955</INCLINATION><RA_OF_ASC_NODE>130.2474</RA_OF_ASC_NODE><ARG_OF_PERICENTER>76.6123</ARG_OF_PERICENTER><MEAN_ANOMALY>283.5227</MEAN_ANOMALY></meanElements><tleParameters><EPHEMERIS_TYPE>0</EPHEMERIS_TYPE><CLASSIFICATION_TYPE>U</CLASSIFICATION_TYPE><NORAD_CAT_ID>47265</NORAD_CAT_ID><ELEMENT_SET_NO>999</ELEMENT_SET_NO><REV_AT_EPOCH>17277</REV_AT_EPOCH><BSTAR>.36089E-3</BSTAR><MEAN_MOTION_DOT>.143E-5</MEAN_MOTION_DOT><MEAN_MOTION_DDOT>0</MEAN_MOTION_DDOT></tleParameters></data></segment></body></omm>

</ndm>
